FLOCK 2E-11             
1 41574U 98067JY  17345.79123990  .00040896  00000-0  19222-3 0  9997
2 41574  51.6239 181.0461 0004959 144.5347 215.5986 15.82707541 87567
